{
    "links": {
        "self": "http://www.neowsapp.com/rest/v1/neo/3879233?api_key=iIulBulltgU6a56xZRHN4H3l9WmuAYTsLGpBGhQ2"
    },
    "id": "3879233",
    "neo_reference_id": "3879233",
    "name": "(2019 UQ)",
    "designation": "2019 UQ",
    "nasa_jpl_url": "http://ssd.jpl.nasa.gov/sbdb.cgi?sstr=3879233",
    "absolute_magnitude_h": 26.2,
    "estimated_diameter": {
        "kilometers": {
            "estimated_diameter_min": 0.0152951935,
            "estimated_diameter_max": 0.0342010925
        },
        "meters": {
            "estimated_diameter_min": 15.2951935344,
            "estimated_diameter_max": 34.201092472
        },
        "miles": {
            "estimated_diameter_min": 0.0095039897,
            "estimated_diameter_max": 0.021251567
        },
        "feet": {
            "estimated_diameter_min": 50.1810827555,
            "estimated_diameter_max": 112.2083122258
        }
    },
    "is_potentially_hazardous_asteroid": false,
    "close_approach_data": [
        {
            "close_approach_date": "2019-10-25",
            "close_approach_date_full": "2019-Oct-25 11:08",
            "epoch_date_close_approach": 1572001680000,
            "relative_velocity": {
                "kilometers_per_second": "12.9486880937",
                "kilometers_per_hour": "46615.2771374816",
                "miles_per_hour": "28964.920396898"
            },
            "miss_distance": {
                "astronomical": "0.0109981756",
                "lunar": "4.2782903084",
                "kilometers": "1645303.643645972",
                "miles": "1022344.2774275336"
            },
            "orbiting_body": "Earth"
        }
    ],
    "orbital_data": {
        "orbit_id": "3",
        "orbit_determination_date": "2019-10-24 06:06:44",
        "first_observation_date": "2019-10-19",
        "last_observation_date": "2019-10-24",
        "data_arc_in_days": 5,
        "observations_used": 30,
        "orbit_uncertainty": "8",
        "minimum_orbit_intersection": "9.85899E-6",
        "jupiter_tisserand_invariant": "3.801",
        "epoch_osculation": "2458776.5",
        "eccentricity": ".5578299919703653",
        "semi_major_axis": "1.847021891646759",
        "inclination": "5.715865270125257",
        "ascending_node_longitude": "210.3160063203061",
        "orbital_period": "916.8673154076339",
        "perihelion_distance": ".8166976846603586",
        "perihelion_argument": "240.0185068053815",
        "aphelion_distance": "2.87734609863316",
        "perihelion_time": "2458822.835147911866",
        "mean_anomaly": "341.8069060070533",
        "mean_motion": ".392641327649406",
        "equinox": "J2000",
        "orbit_class": {
            "orbit_class_type": "APO",
            "orbit_class_description": "Near-Earth asteroid orbits which cross the Earth’s orbit similar to that of 1862 Apollo",
            "orbit_class_range": "a (semi-major axis) > 1.0 AU; q (perihelion) < 1.017 AU"
        }
    },
    "is_sentry_object": false
}